[{"OBJECT_NAME":"CUBEBEL 2 (EU11S)","OBJECT_ID":"2023-091K","EPOCH":"2026-03-09T21:40:29.186112","MEAN_MOTION":15.26706784,"ECCENTRICITY":0.00118653,"INCLINATION":97.517,"RA_OF_ASC_NODE":131.3579,"ARG_OF_PERICENTER":105.889,"MEAN_ANOMALY":254.3657,"EPHEMERIS_TYPE":0,"CLASSIFICATION_TYPE":"U","NORAD_CAT_ID":57175,"ELEMENT_SET_NO":999,"REV_AT_EPOCH":14914,"BSTAR":0.00056688644,"MEAN_MOTION_DOT":0.00014859,"MEAN_MOTION_DDOT":0},{"OBJECT_NAME":"STARLINK-31632","OBJECT_ID":"2024-057G","EPOCH":"2026-03-09T09:25:25.151808","MEAN_MOTION":15.27596218,"ECCENTRICITY":0.00013869,"INCLINATION":42.9986,"RA_OF_ASC_NODE":199.994,"ARG_OF_PERICENTER":285.8027,"MEAN_ANOMALY":74.2672,"EPHEMERIS_TYPE":0,"CLASSIFICATION_TYPE":"U","NORAD_CAT_ID":59326,"ELEMENT_SET_NO":999,"REV_AT_EPOCH":10966,"BSTAR":-0.00011518227,"MEAN_MOTION_DOT":-3.432e-5,"MEAN_MOTION_DDOT":0}]
